[{"Name":"Terry Medhurst","Address":"1745 T Street Southeast","PostalCode":"20020","City":"Washington","Phone":"+63 791 675 8914"},{"Name":"Sheldon Quigley","Address":"6007 Applegate Lane","PostalCode":"40219","City":"Louisville","Phone":"+7 813 117 7139"},{"Name":"Terrill Hills","Address":"560 Penstock Drive","PostalCode":"95945","City":"Grass Valley","Phone":"+63 739 292 7942"},{"Name":"Miles Cummerata","Address":"150 Carter Street","PostalCode":"06040","City":"Manchester","Phone":"+86 461 145 4186"},{"Name":"Mavis Schultz","Address":"2721 Lindsay Avenue","PostalCode":"40206","City":"Louisville","Phone":"+372 285 771 1911"},{"Name":"Alison Reichert","Address":"18 Densmore Drive","PostalCode":"05452","City":"Essex","Phone":"+351 527 735 3642"},{"Name":"Oleta Abbott","Address":"637 Britannia Drive","PostalCode":"94591","City":"Vallejo","Phone":"+62 640 802 7111"},{"Name":"Ewell Mueller","Address":"5601 West Crocus Drive","PostalCode":"85306","City":"Glendale","Phone":"+86 946 297 2275"},{"Name":"Demetrius Corkery","Address":"5403 Illinois Avenue","PostalCode":"37209","City":"Nashville","Phone":"+86 356 590 9727"},{"Name":"Eleanora Price","Address":"8821 West Myrtle Avenue","PostalCode":"85305","City":"Glendale","Phone":"+60 184 408 0824"},{"Name":"Marcel Jones","Address":"2203 7th Street Road","PostalCode":"40208","City":"Louisville","Phone":"+967 253 210 0344"},{"Name":"Assunta Rath","Address":"6463 Vrain Street","PostalCode":"80003","City":"Arvada","Phone":"+380 962 542 6549"},{"Name":"Trace Douglas","Address":"87 Horseshoe Drive","PostalCode":"05037","City":"West Windsor","Phone":"+1 609 937 3468"},{"Name":"Enoch Lynch","Address":"60 Desousa Drive","PostalCode":"06040","City":"Manchester","Phone":"+94 912 100 5118"},{"Name":"Jeanne Halvorson","Address":"4 Old Colony Way","PostalCode":"02664","City":"Yarmouth","Phone":"+86 581 108 7855"},{"Name":"Trycia Fadel","Address":"314 South 17th Street","PostalCode":"37206","City":"Nashville","Phone":"+420 833 708 0340"},{"Name":"Bradford Prohaska","Address":"1649 Timberridge Court","PostalCode":"72704","City":"Fayetteville","Phone":"+420 874 628 3710"},{"Name":"Arely Skiles","Address":"5461 West Shades Valley Drive","PostalCode":"36108","City":"Montgomery","Phone":"+55 886 766 8617"},{"Name":"Gust Purdy","Address":"629 Debbie Drive","PostalCode":"37076","City":"Nashville","Phone":"+86 886 889 0258"},{"Name":"Lenna Renner","Address":"22572 Toreador Drive","PostalCode":"93908","City":"Salinas","Phone":"+1 904 601 7177"},{"Name":"Doyle Ernser","Address":"3034 Mica Street","PostalCode":"72704","City":"Fayetteville","Phone":"+86 634 419 6839"},{"Name":"Tressa Weber","Address":"3729 East Mission Boulevard","PostalCode":"72703","City":"Fayetteville","Phone":"+34 517 104 6248"},{"Name":"Felicity O'Reilly","Address":"5114 Greentree Drive","PostalCode":"37211","City":"Nashville","Phone":"+63 919 564 1690"},{"Name":"Jocelyn Schuster","Address":"3466 Southview Avenue","PostalCode":"36111","City":"Montgomery","Phone":"+7 968 462 1292"},{"Name":"Edwina Ernser","Address":"1513 Cathy Street","PostalCode":"31415","City":"Savannah","Phone":"+86 376 986 8945"},{"Name":"Griffin Braun","Address":"600 West 19th Avenue","PostalCode":"99503","City":"Anchorage","Phone":"+62 511 790 0161"},{"Name":"Piper Schowalter","Address":"1208 Elkader Court North","PostalCode":"37013","City":"Nashville","Phone":"+60 785 960 7918"},{"Name":"Kody Terry","Address":"210 Green Road","PostalCode":"06042","City":"Manchester","Phone":"+81 859 545 8951"},{"Name":"Macy Greenfelder","Address":"49548 Road 200","PostalCode":"93645","City":"O'Neals","Phone":"+81 915 649 2384"},{"Name":"Maurine Stracke","Address":"81 Seaton Place Northwest","PostalCode":"20001","City":"Washington","Phone":"+48 143 590 6847"}]